NORAD_CAT_ID,OBJECT_NAME,OBJECT_TYPE,EPOCH,MEAN_MOTION,ECCENTRICITY,INCLINATION,RA_OF_ASC_NODE,ARG_OF_PERICENTER,MEAN_ANOMALY,BSTAR,MEAN_MOTION_DOT,MEAN_MOTION_DDOT,TLE_LINE0,TLE_LINE1,TLE_LINE2,SEMIMAJOR_AXIS,PERIOD,APOGEE,PERIGEE,DECAYED
56777.0,STARLINK-5582,PAYLOAD,2024-01-26 11:09:44,14.9839737,0.0002887,70.0007,134.2353,270.6736,89.4092,-0.00092838,-0.00011172,0.0,0 STARLINK-5582,1 56777U 23078L   24026.46509710 -.00011172  00000-0 -92838-3 0  9995,2 56777  70.0007 134.2353 0002887 270.6736  89.4092 14.98397370 37110,6949.985,96.103,573.856,569.843,0.0
56777.0,STARLINK-5582,PAYLOAD,2024-01-26 14:22:00,14.98358582,0.0002348,70.0008,133.8987,264.9269,95.1622,-0.00023643,-2.915e-05,0.0,0 STARLINK-5582,1 56777U 23078L   24026.59861972 -.00002915  00000-0 -23643-3 0  9993,2 56777  70.0008 133.8987 0002348 264.9269  95.1622 14.98358582 36875,6950.105,96.105,573.601,570.338,0.0
56777.0,STARLINK-5582,PAYLOAD,2024-01-26 15:58:08,14.98380408,0.0002561,70.0008,133.7304,268.5157,91.5709,-0.00060048,-7.26e-05,0.0,0 STARLINK-5582,1 56777U 23078L   24026.66537316 -.00007260  00000-0 -60048-3 0  9991,2 56777  70.0008 133.7304 0002561 268.5157  91.5709 14.98380408 37149,6950.037,96.104,573.682,570.122,0.0
56777.0,STARLINK-5582,PAYLOAD,2024-01-27 12:47:54,14.98326345,0.0002637,70.0015,131.544,243.1429,116.9461,6.7791e-06,-1.2e-07,0.0,0 STARLINK-5582,1 56777U 23078L   24027.53327246 -.00000012  00000-0  67791-5 0  9998,2 56777  70.0015 131.5440 0002637 243.1429 116.9461 14.98326345 37270,6950.204,96.107,573.902,570.236,0.0
56777.0,STARLINK-5582,PAYLOAD,2024-01-27 14:24:03,14.98323559,0.000264,70.0012,131.3746,250.5957,109.4917,-1.7188e-05,-2.98e-06,0.0,0 STARLINK-5582,1 56777U 23078L   24027.60003534 -.00000298  00000-0 -17188-4 0  9998,2 56777  70.0012 131.3746 0002640 250.5957 109.4917 14.98323559 37026,6950.213,96.107,573.913,570.243,0.0
56777.0,STARLINK-5582,PAYLOAD,2024-01-27 17:36:19,14.98323942,0.0002643,70.0013,131.038,250.9575,109.1298,-1.9506e-05,-3.26e-06,0.0,0 STARLINK-5582,1 56777U 23078L   24027.73355550 -.00000326  00000-0 -19506-4 0  9998,2 56777  70.0013 131.0380 0002643 250.9575 109.1298 14.98323942 37048,6950.212,96.107,573.914,570.24,0.0
56777.0,STARLINK-5582,PAYLOAD,2024-01-28 14:26:04,14.98327681,0.0002682,70.0011,128.8496,252.581,107.5056,-0.00010619,-1.36e-05,0.0,0 STARLINK-5582,1 56777U 23078L   24028.60143625 -.00001360  00000-0 -10619-3 0  9997,2 56777  70.0011 128.8496 0002682 252.5810 107.5056 14.98327681 37173,6950.2,96.107,573.929,570.201,0.0
56777.0,STARLINK-5582,PAYLOAD,2024-01-28 16:02:12,14.98328071,0.0002678,70.0011,128.6813,252.5444,107.5422,-9.9589e-05,-1.281e-05,0.0,0 STARLINK-5582,1 56777U 23078L   24028.66819592 -.00001281  00000-0 -99589-4 0  9992,2 56777  70.0011 128.6813 0002678 252.5444 107.5422 14.98328071 37443,6950.199,96.107,573.925,570.203,0.0
56777.0,STARLINK-5582,PAYLOAD,2024-01-29 11:15:48,14.98332434,0.0002879,70.0005,126.6603,258.1031,101.9805,0.00012059,1.346e-05,0.0,0 STARLINK-5582,1 56777U 23078L   24029.46930682  .00001346  00000-0  12059-3 0  9991,2 56777  70.0005 126.6603 0002879 258.1031 101.9805 14.98332434 37562,6950.185,96.107,574.051,570.049,0.0
56777.0,STARLINK-5582,PAYLOAD,2024-01-30 11:17:49,14.98325429,0.0003031,70.0,124.1356,267.9045,92.1767,3.146e-05,2.82e-06,0.0,0 STARLINK-5582,1 56777U 23078L   24030.47071523  .00000282  00000-0  31460-4 0  9990,2 56777  70.0000 124.1356 0003031 267.9045  92.1767 14.98325429 37710,6950.207,96.107,574.179,569.965,0.0
56777.0,STARLINK-5582,PAYLOAD,2024-01-30 14:30:05,14.9832486,0.0002891,70.0002,123.7991,264.5165,95.5665,4.2672e-05,4.16e-06,0.0,0 STARLINK-5582,1 56777U 23078L   24030.60423545  .00000416  00000-0  42672-4 0  9996,2 56777  70.0002 123.7991 0002891 264.5165  95.5665 14.98324860 37476,6950.209,96.107,574.083,570.064,0.0
56777.0,STARLINK-5582,PAYLOAD,2024-01-30 16:06:14,14.98324488,0.0002774,70.0004,123.6309,260.9116,99.173,3.0307e-05,2.69e-06,0.0,0 STARLINK-5582,1 56777U 23078L   24030.67099609  .00000269  00000-0  30307-4 0  9991,2 56777  70.0004 123.6309 0002774 260.9116  99.1730 14.98324488 37486,6950.21,96.107,574.003,570.147,0.0
56777.0,STARLINK-5582,PAYLOAD,2024-01-31 11:19:50,14.98335911,0.0002647,70.0011,121.6119,257.8385,102.2478,6.2264e-05,6.5e-06,0.0,0 STARLINK-5582,1 56777U 23078L   24031.47210675  .00000650  00000-0  62264-4 0  9999,2 56777  70.0011 121.6119 0002647 257.8385 102.2478 14.98335911 37863,6950.175,96.107,573.879,570.2,0.0
56777.0,STARLINK-5582,PAYLOAD,2024-01-31 16:08:14,14.98338878,0.0002666,70.0008,121.1062,261.2955,98.7902,3.9356e-05,3.77e-06,0.0,0 STARLINK-5582,1 56777U 23078L   24031.67238456  .00000377  00000-0  39356-4 0  9990,2 56777  70.0008 121.1062 0002666 261.2955  98.7902 14.98338878 37635,6950.165,96.106,573.883,570.178,0.0
56777.0,STARLINK-5582,PAYLOAD,2024-02-01 11:21:51,14.98326895,0.0002703,70.0008,119.0869,267.4316,92.6533,6.8044e-05,7.19e-06,0.0,0 STARLINK-5582,1 56777U 23078L   24032.47351043  .00000719  00000-0  68044-4 0  9993,2 56777  70.0008 119.0869 0002703 267.4316  92.6533 14.98326895 38019,6950.202,96.107,573.946,570.189,0.0
56777.0,STARLINK-5582,PAYLOAD,2024-02-01 16:10:15,14.98329166,0.0002777,70.0005,118.5799,272.8464,87.2377,0.00010483,1.158e-05,0.0,0 STARLINK-5582,1 56777U 23078L   24032.67378824  .00001158  00000-0  10483-3 0  9992,2 56777  70.0005 118.5799 0002777 272.8464  87.2377 14.98329166 37780,6950.195,96.107,573.991,570.13,0.0
56777.0,STARLINK-5582,PAYLOAD,2024-02-02 11:23:52,14.98330558,0.0002618,70.0003,116.5595,267.9298,92.1561,-4.7891e-06,-1.5e-06,0.0,0 STARLINK-5582,1 56777U 23078L   24033.47490907 -.00000150  00000-0 -47891-5 0  9996,2 56777  70.0003 116.5595 0002618 267.9298  92.1561 14.98330558 38164,6950.191,96.107,573.876,570.237,0.0
56777.0,STARLINK-5582,PAYLOAD,2024-02-02 14:36:08,14.98322118,0.0002659,70.0003,116.2229,270.0885,89.997,0.00014138,1.594e-05,0.0,0 STARLINK-5582,1 56777U 23078L   24033.60843088  .00001594  00000-0  14138-3 0  9990,2 56777  70.0003 116.2229 0002659 270.0885  89.9970 14.98322118 37921,6950.217,96.108,573.93,570.234,0.0
56777.0,STARLINK-5582,PAYLOAD,2024-02-02 16:12:16,14.98321024,0.0002648,70.0004,116.0542,271.8456,88.2399,0.00015672,1.777e-05,0.0,0 STARLINK-5582,1 56777U 23078L   24033.67519160  .00001777  00000-0  15672-3 0  9995,2 56777  70.0004 116.0542 0002648 271.8456  88.2399 14.98321024 37932,6950.221,96.108,573.926,570.245,0.0
56777.0,STARLINK-5582,PAYLOAD,2024-02-03 13:02:01,14.98326514,0.0002781,70.0,113.8663,271.3054,88.7786,-2.9887e-05,-4.5e-06,0.0,0 STARLINK-5582,1 56777U 23078L   24034.54307192 -.00000450  00000-0 -29887-4 0  9995,2 56777  70.0000 113.8663 0002781 271.3054  88.7786 14.98326514 38063,6950.204,96.107,574.002,570.136,0.0
56777.0,STARLINK-5582,PAYLOAD,2024-02-03 14:38:09,14.98327597,0.0002777,70.0,113.6981,271.4062,88.6779,-1.7304e-05,-2.99e-06,0.0,0 STARLINK-5582,1 56777U 23078L   24034.60983100 -.00000299  00000-0 -17304-4 0  9993,2 56777  70.0000 113.6981 0002777 271.4062  88.6779 14.98327597 38073,6950.2,96.107,573.995,570.135,0.0
56777.0,STARLINK-5582,PAYLOAD,2024-02-04 11:27:53,14.98332177,0.0002766,70.0002,111.5113,263.3897,96.6947,3.6617e-05,3.44e-06,0.0,0 STARLINK-5582,1 56777U 23078L   24035.47770594  .00000344  00000-0  36617-4 0  9997,2 56777  70.0002 111.5113 0002766 263.3897  96.6947 14.98332177 38462,6950.186,96.107,573.974,570.129,0.0
56777.0,STARLINK-5582,PAYLOAD,2024-02-04 14:40:09,14.98334351,0.0002722,70.0004,111.1751,262.1958,97.8892,6.1715e-05,6.44e-06,0.0,0 STARLINK-5582,1 56777U 23078L   24035.61122354  .00000644  00000-0  61715-4 0  9998,2 56777  70.0004 111.1751 0002722 262.1958  97.8892 14.98334351 38227,6950.179,96.107,573.936,570.153,0.0
56777.0,STARLINK-5582,PAYLOAD,2024-02-05 11:29:54,14.98330052,0.0002781,70.0003,108.9886,267.4465,92.6376,4.783e-05,4.78e-06,0.0,0 STARLINK-5582,1 56777U 23078L   24036.47910609  .00000478  00000-0  47830-4 0  9998,2 56777  70.0003 108.9886 0002781 267.4465  92.6376 14.98330052 38612,6950.193,96.107,573.991,570.125,0.0
56777.0,STARLINK-5582,PAYLOAD,2024-02-05 14:42:10,14.98330644,0.0002771,70.0003,108.6517,267.7981,92.2861,5.363e-05,5.47e-06,0.0,0 STARLINK-5582,1 56777U 23078L   24036.61262551  .00000547  00000-0  53630-4 0  9992,2 56777  70.0003 108.6517 0002771 267.7981  92.2861 14.98330644 38370,6950.191,96.107,573.982,570.13,0.0
56777.0,STARLINK-5582,PAYLOAD,2024-02-06 11:31:55,14.98334378,0.0002699,70.0004,106.4636,267.8726,92.2124,-1.9775e-06,-1.17e-06,0.0,0 STARLINK-5582,1 56777U 23078L   24037.48050377 -.00000117  00000-0 -19775-5 0  9997,2 56777  70.0004 106.4636 0002699 267.8726  92.2124 14.98334378 38769,6950.179,96.107,573.92,570.168,0.0
56777.0,STARLINK-5582,PAYLOAD,2024-02-06 13:08:03,14.98335194,0.0002682,70.0005,106.2954,267.5885,92.4967,8.2108e-06,5e-08,0.0,0 STARLINK-5582,1 56777U 23078L   24037.54726275  .00000005  00000-0  82108-5 0  9995,2 56777  70.0005 106.2954 0002682 267.5885  92.4967 14.98335194 38513,6950.177,96.107,573.906,570.178,0.0
56777.0,STARLINK-5582,PAYLOAD,2024-02-06 14:44:11,14.98335054,0.0002694,70.0004,106.1269,268.0986,91.9864,6.1429e-06,-2e-07,0.0,0 STARLINK-5582,1 56777U 23078L   24037.61402269 -.00000020  00000-0  61429-5 0  9998,2 56777  70.0004 106.1269 0002694 268.0986  91.9864 14.98335054 38527,6950.177,96.107,573.915,570.17,0.0
56777.0,STARLINK-5582,PAYLOAD,2024-02-07 11:33:56,14.98330507,0.0002651,70.0003,103.938,270.4706,89.6149,1.2319e-05,5.4e-07,0.0,0 STARLINK-5582,1 56777U 23078L   24038.48190438  .00000054  00000-0  12319-4 0  9995,2 56777  70.0003 103.9380 0002651 270.4706  89.6149 14.98330507 38916,6950.191,96.107,573.899,570.214,0.0
56777.0,STARLINK-5582,PAYLOAD,2024-02-07 14:46:12,14.98331351,0.0002644,70.0003,103.6014,270.3965,89.6891,2.1107e-05,1.59e-06,0.0,0 STARLINK-5582,1 56777U 23078L   24038.61542354  .00000159  00000-0  21107-4 0  9999,2 56777  70.0003 103.6014 0002644 270.3965  89.6891 14.98331351 38670,6950.189,96.107,573.891,570.216,0.0
